[
    {
        "Altitude(m)": 553498.5433675956,
        "Argument of Periapsis(deg)": 0.006622991110713501,
        "Eccentricity": 0.0,
        "Inclination(deg)": 53.0,
        "Latitude(deg)": 9.471377374572658,
        "Longitude(deg)": -73.59061625329869,
        "Mean Anomaly(deg)": 11.909792867577586,
        "RAAN(deg)": 19.990143368528017,
        "Satellite Name": "Starlink Shell 1 88",
        "Satellite Number": 88,
        "Semi-Major Axis(m)": 6931778.249405717,
        "Time(s)": 190
    },
    {
        "Altitude(m)": 553487.1553735317,
        "Argument of Periapsis(deg)": 0.0069715695902247375,
        "Eccentricity": 0.0,
        "Inclination(deg)": 53.0,
        "Latitude(deg)": 9.971147545094075,
        "Longitude(deg)": -73.24416135470285,
        "Mean Anomaly(deg)": 12.536624071134296,
        "RAAN(deg)": 19.989624598450543,
        "Satellite Name": "Starlink Shell 1 88",
        "Satellite Number": 88,
        "Semi-Major Axis(m)": 6931778.249405717,
        "Time(s)": 200
    },
    {
        "Altitude(m)": 553478.459789607,
        "Argument of Periapsis(deg)": 0.007320148069735974,
        "Eccentricity": 0.0,
        "Inclination(deg)": 53.0,
        "Latitude(deg)": 10.470456787790077,
        "Longitude(deg)": -72.8965202605674,
        "Mean Anomaly(deg)": 13.163455274691014,
        "RAAN(deg)": 19.98910582837307,
        "Satellite Name": "Starlink Shell 1 88",
        "Satellite Number": 88,
        "Semi-Major Axis(m)": 6931778.249405717,
        "Time(s)": 210
    },
    {
        "Altitude(m)": 553472.4377300892,
        "Argument of Periapsis(deg)": 0.007668726549247212,
        "Eccentricity": 0.0,
        "Inclination(deg)": 53.0,
        "Latitude(deg)": 10.96927963277506,
        "Longitude(deg)": -72.54763005529769,
        "Mean Anomaly(deg)": 13.79028647824773,
        "RAAN(deg)": 19.9885870582956,
        "Satellite Name": "Starlink Shell 1 88",
        "Satellite Number": 88,
        "Semi-Major Axis(m)": 6931778.249405717,
        "Time(s)": 220
    },
    {
        "Altitude(m)": 553469.0690735868,
        "Argument of Periapsis(deg)": 0.00801730502875845,
        "Eccentricity": 0.0,
        "Inclination(deg)": 53.0,
        "Latitude(deg)": 11.46759034532197,
        "Longitude(deg)": -72.19742728077843,
        "Mean Anomaly(deg)": 14.417117681804449,
        "RAAN(deg)": 19.988068288218127,
        "Satellite Name": "Starlink Shell 1 88",
        "Satellite Number": 88,
        "Semi-Major Axis(m)": 6931778.249405717,
        "Time(s)": 230
    },
    {
        "Altitude(m)": 553468.3324758261,
        "Argument of Periapsis(deg)": 0.008365883508269684,
        "Eccentricity": 0.0,
        "Inclination(deg)": 53.0,
        "Latitude(deg)": 11.965362911519783,
        "Longitude(deg)": -71.84584740543582,
        "Mean Anomaly(deg)": 15.043948885361166,
        "RAAN(deg)": 19.987549518140654,
        "Satellite Name": "Starlink Shell 1 88",
        "Satellite Number": 88,
        "Semi-Major Axis(m)": 6931778.249405717,
        "Time(s)": 240
    },
    {
        "Altitude(m)": 553470.2053829847,
        "Argument of Periapsis(deg)": 0.008714461987780921,
        "Eccentricity": 0.0,
        "Inclination(deg)": 53.0,
        "Latitude(deg)": 12.462571023672382,
        "Longitude(deg)": -71.4928258060926,
        "Mean Anomaly(deg)": 15.670780088917883,
        "RAAN(deg)": 19.98703074806318,
        "Satellite Name": "Starlink Shell 1 88",
        "Satellite Number": 88,
        "Semi-Major Axis(m)": 6931778.249405717,
        "Time(s)": 250
    },
    {
        "Altitude(m)": 553474.6640456433,
        "Argument of Periapsis(deg)": 0.009063040467292158,
        "Eccentricity": 0.0,
        "Inclination(deg)": 53.0,
        "Latitude(deg)": 12.959188065427417,
        "Longitude(deg)": -71.13829723687728,
        "Mean Anomaly(deg)": 16.297611292474585,
        "RAAN(deg)": 19.98651197798571,
        "Satellite Name": "Starlink Shell 1 88",
        "Satellite Number": 88,
        "Semi-Major Axis(m)": 6931778.249405717,
        "Time(s)": 260
    },
    {
        "Altitude(m)": 553481.6835333207,
        "Argument of Periapsis(deg)": 0.009411618946803396,
        "Eccentricity": 0.0,
        "Inclination(deg)": 53.0,
        "Latitude(deg)": 13.455187096622092,
        "Longitude(deg)": -70.7821952980695,
        "Mean Anomaly(deg)": 16.92444249603131,
        "RAAN(deg)": 19.985993207908233,
        "Satellite Name": "Starlink Shell 1 88",
        "Satellite Number": 88,
        "Semi-Major Axis(m)": 6931778.249405717,
        "Time(s)": 270
    },
    {
        "Altitude(m)": 553491.2377495749,
        "Argument of Periapsis(deg)": 0.009760197426314633,
        "Eccentricity": 0.0,
        "Inclination(deg)": 53.0,
        "Latitude(deg)": 13.950540837832685,
        "Longitude(deg)": -70.42445341776462,
        "Mean Anomaly(deg)": 17.55127369958802,
        "RAAN(deg)": 19.98547443783076,
        "Satellite Name": "Starlink Shell 1 88",
        "Satellite Number": 88,
        "Semi-Major Axis(m)": 6931778.249405717,
        "Time(s)": 280
    },
    {
        "Altitude(m)": 553503.2994476795,
        "Argument of Periapsis(deg)": 0.01010877590582587,
        "Eccentricity": 0.0,
        "Inclination(deg)": 53.0,
        "Latitude(deg)": 14.445221654616574,
        "Longitude(deg)": -70.06500432062505,
        "Mean Anomaly(deg)": 18.178104903144735,
        "RAAN(deg)": 19.98495566775329,
        "Satellite Name": "Starlink Shell 1 88",
        "Satellite Number": 88,
        "Semi-Major Axis(m)": 6931778.249405717,
        "Time(s)": 290
    },
    {
        "Altitude(m)": 553517.8402468552,
        "Argument of Periapsis(deg)": 0.010457354385337106,
        "Eccentricity": 0.0,
        "Inclination(deg)": 53.0,
        "Latitude(deg)": 14.939201541433318,
        "Longitude(deg)": -69.70377949660583,
        "Mean Anomaly(deg)": 18.804936106701454,
        "RAAN(deg)": 19.984436897675817,
        "Satellite Name": "Starlink Shell 1 88",
        "Satellite Number": 88,
        "Semi-Major Axis(m)": 6931778.249405717,
        "Time(s)": 300
    },
    {
        "Altitude(m)": 553534.8306490531,
        "Argument of Periapsis(deg)": 0.010805932864848343,
        "Eccentricity": 0.0,
        "Inclination(deg)": 53.0,
        "Latitude(deg)": 15.432452105231869,
        "Longitude(deg)": -69.34071018254375,
        "Mean Anomaly(deg)": 19.431767310258167,
        "RAAN(deg)": 19.983918127598344,
        "Satellite Name": "Starlink Shell 1 88",
        "Satellite Number": 88,
        "Semi-Major Axis(m)": 6931778.249405717,
        "Time(s)": 310
    },
    {
        "Altitude(m)": 553554.2400562756,
        "Argument of Periapsis(deg)": 0.01115451134435958,
        "Eccentricity": 0.0,
        "Inclination(deg)": 53.0,
        "Latitude(deg)": 15.924944548692377,
        "Longitude(deg)": -68.97572683088538,
        "Mean Anomaly(deg)": 20.058598513814882,
        "RAAN(deg)": 19.983399357520874,
        "Satellite Name": "Starlink Shell 1 88",
        "Satellite Number": 88,
        "Semi-Major Axis(m)": 6931778.249405717,
        "Time(s)": 320
    },
    {
        "Altitude(m)": 553576.0367884382,
        "Argument of Periapsis(deg)": 0.011503089823870818,
        "Eccentricity": 0.0,
        "Inclination(deg)": 53.0,
        "Latitude(deg)": 16.416649653109435,
        "Longitude(deg)": -68.60875857844843,
        "Mean Anomaly(deg)": 20.685429717371598,
        "RAAN(deg)": 19.982880587443397,
        "Satellite Name": "Starlink Shell 1 88",
        "Satellite Number": 88,
        "Semi-Major Axis(m)": 6931778.249405717,
        "Time(s)": 330
    },
    {
        "Altitude(m)": 553600.1881017343,
        "Argument of Periapsis(deg)": 0.011851668303382053,
        "Eccentricity": 0.0,
        "Inclination(deg)": 53.0,
        "Latitude(deg)": 16.90753776090382,
        "Longitude(deg)": -68.239734228114,
        "Mean Anomaly(deg)": 21.312260920928317,
        "RAAN(deg)": 19.982361817365923,
        "Satellite Name": "Starlink Shell 1 88",
        "Satellite Number": 88,
        "Semi-Major Axis(m)": 6931778.249405717,
        "Time(s)": 340
    },
    {
        "Altitude(m)": 553626.6602075209,
        "Argument of Periapsis(deg)": 0.012200246782893292,
        "Eccentricity": 0.0,
        "Inclination(deg)": 53.0,
        "Latitude(deg)": 17.397578757751333,
        "Longitude(deg)": -67.86858171773395,
        "Mean Anomaly(deg)": 21.93909212448503,
        "RAAN(deg)": 19.98184304728845,
        "Satellite Name": "Starlink Shell 1 88",
        "Satellite Number": 88,
        "Semi-Major Axis(m)": 6931778.249405717,
        "Time(s)": 350
    },
    {
        "Altitude(m)": 553655.4182917061,
        "Argument of Periapsis(deg)": 0.012548825262404526,
        "Eccentricity": 0.0,
        "Inclination(deg)": 53.0,
        "Latitude(deg)": 17.88674205431619,
        "Longitude(deg)": -67.49522758915684,
        "Mean Anomaly(deg)": 22.56592332804175,
        "RAAN(deg)": 19.98132427721098,
        "Satellite Name": "Starlink Shell 1 88",
        "Satellite Number": 88,
        "Semi-Major Axis(m)": 6931778.249405717,
        "Time(s)": 360
    },
    {
        "Altitude(m)": 553686.4265346269,
        "Argument of Periapsis(deg)": 0.012897403741915765,
        "Eccentricity": 0.0,
        "Inclination(deg)": 53.0,
        "Latitude(deg)": 18.37499656757573,
        "Longitude(deg)": -67.11959797028139,
        "Mean Anomaly(deg)": 23.192754531598453,
        "RAAN(deg)": 19.980805507133507,
        "Satellite Name": "Starlink Shell 1 88",
        "Satellite Number": 88,
        "Semi-Major Axis(m)": 6931778.249405717,
        "Time(s)": 370
    }
]